[{"OBJECT_NAME":"STARLINK-32749","OBJECT_ID":"2025-003X","EPOCH":"2026-03-09T22:50:33.802368","MEAN_MOTION":15.27603175,"ECCENTRICITY":0.00017472,"INCLINATION":42.9982,"RA_OF_ASC_NODE":287.3095,"ARG_OF_PERICENTER":261.6441,"MEAN_ANOMALY":98.4213,"EPHEMERIS_TYPE":0,"CLASSIFICATION_TYPE":"U","NORAD_CAT_ID":62508,"ELEMENT_SET_NO":999,"REV_AT_EPOCH":6659,"BSTAR":0.0011957253,"MEAN_MOTION_DOT":0.00032812,"MEAN_MOTION_DDOT":0},{"OBJECT_NAME":"FLOCK 4G-26","OBJECT_ID":"2025-009AA","EPOCH":"2026-03-09T19:19:02.910720","MEAN_MOTION":15.27281631,"ECCENTRICITY":0.0001988,"INCLINATION":97.4054,"RA_OF_ASC_NODE":151.3913,"ARG_OF_PERICENTER":299.1273,"MEAN_ANOMALY":60.9767,"EPHEMERIS_TYPE":0,"CLASSIFICATION_TYPE":"U","NORAD_CAT_ID":62633,"ELEMENT_SET_NO":999,"REV_AT_EPOCH":6373,"BSTAR":0.00042468806,"MEAN_MOTION_DOT":0.00011283,"MEAN_MOTION_DDOT":0}]
